satname,norad_id,inclination_deg,eccentricity,mean_motion_rev_per_day,perigee_km,apogee_km,l1,l2
STARLINK-1316,45415,53.1546,0.0003405,15.40269073,442.99114783526056,447.6379183292893,1 45415U 20019BH  26175.18349749  .00048071  00000+0  11786-2 0  9991,2 45415  53.1546 350.8699 0003405 136.9407 223.1865 15.40269073346352
STARLINK-1286,45417,53.0454,0.0002923,15.65858472,368.79822875042464,372.74364032895573,1 45417U 20019BK  26175.15039613  .00057256  00000+0  55441-3 0  9998,2 45417  53.0454 334.3193 0002923 303.9549  56.1188 15.65858472346811
STARLINK-1308,45419,53.0461,0.0006094,15.6731829,362.46938058802607,370.68984119337983,1 45419U 20019BM  26175.22427256  .00048703  00000+0  44565-3 0  9994,2 45419  53.0461 353.1732 0006094  91.2971 268.8742 15.67318290346301
STARLINK-1329,45531,53.04,0.0001757,15.75373262,342.3882269702017,344.7502345396888,1 45531U 20025A   26174.56334917  .00061160  00000+0  39787-3 0  9995,2 45531  53.0400 279.2389 0001757 299.3821  60.7022 15.75373262342069
STARLINK-1338,45532,53.0429,0.0001848,15.72689149,349.97144265050974,352.4586111596536,1 45532U 20025B   26175.33335648 -.00036738  00000+0 -26415-3 0  9993,2 45532  53.0429 282.6350 0001848  66.9881 273.2022 15.72689149  5778
STARLINK-1350,45535,53.0706,0.0001109,15.38635124,449.387184797436,450.9016976210951,1 45535U 20025E   26174.94910503  .00030998  00000+0  80725-3 0  9995,2 45535  53.0706 253.1299 0001109  47.2552 312.8544 15.38635124342501
STARLINK-1362,45538,53.1577,0.0002905,15.38774127,447.74972324204737,451.7167158395996,1 45538U 20025H   26175.11092894  .00043505  00000+0  11219-2 0  9991,2 45538  53.1577 323.7493 0002905 269.0133  91.0539 15.38774127341512
STARLINK-1368,45540,53.1569,0.0002096,15.38907794,447.9068033716658,450.7688808254743,1 45540U 20025K   26175.12300658  .00042985  00000+0  11039-2 0  9996,2 45540  53.1569 324.0473 0002096 224.0841 135.9997 15.38907794341509
STARLINK-1371,45542,53.042,0.0001457,15.69957783,358.0361801275758,359.999387031512,1 45542U 20025M   26175.33335648 -.00007549  00000+0 -56886-4 0  9998,2 45542  53.0420 292.8682 0001457  71.2799 157.6613 15.69957783  5919
STARLINK-1372,45543,53.1582,0.0001333,15.39380389,447.0304825180001,448.85031475247524,1 45543U 20025N   26175.14146361  .00043196  00000+0  10923-2 0  9996,2 45543  53.1582 323.4038 0001333 224.6479 135.4419 15.39380389340614
STARLINK-1373,45544,53.0433,0.000201,15.71558859,353.0879630174695,355.7944594583869,1 45544U 20025P   26174.70705780  .00048892  00000+0  37589-3 0  9990,2 45544  53.0433 290.8422 0002010  51.6455 308.4743 15.71558859341919
STARLINK-1327,45555,53.0397,0.0001704,15.73300788,348.3244535360627,350.61722228722283,1 45555U 20025AA  26175.33335648 -.00056652  00000+0 -40011-3 0  9993,2 45555  53.0397 265.0965 0001704  65.6686 260.1487 15.73300788  5987
STARLINK-1356,45564,53.043,0.0002754,15.66517667,367.01936775977083,370.73562334392045,1 45564U 20025AK  26175.01167269  .00043269  00000+0  41004-3 0  9991,2 45564  53.0430 280.2218 0002754 357.8337   2.2665 15.66517667342086
STARLINK-1357,45565,53.0424,0.0001981,15.71289815,353.8758368452927,356.5435888129159,1 45565U 20025AL  26174.87038105  .00071742  00000+0  55413-3 0  9997,2 45565  53.0424 237.1154 0001981 162.0730 198.0358 15.71289815342680
STARLINK-1361,45567,53.0415,0.0001538,15.70078272,357.6369815244707,359.70922431212875,1 45567U 20025AN  26175.33335648 -.00036980  00000+0 -29706-3 0  9996,2 45567  53.0415 276.9860 0001538  74.1510 300.3431 15.70078272  5963
STARLINK-1376,45570,53.157,0.0001145,15.39730836,446.1231360045922,447.68607053174037,1 45570U 20025AR  26174.07576892  .00041110  00000+0  10284-2 0  9997,2 45570  53.1570 304.7817 0001145 191.1294 168.9686 15.39730836341683
STARLINK-1320,45572,53.038,0.0009092,15.91934161,290.80181549266763,302.93964955348747,1 45572U 20025AT  26175.28507159  .00181875  23445-4  54473-3 0  9998,2 45572  53.0380 171.7772 0009092  31.9385 328.2190 15.91934161343640
STARLINK-1321,45573,53.0405,0.0001617,15.70459095,356.49481330519757,358.673145469932,1 45573U 20025AU  26175.33335648 -.00009075  00000+0 -67900-4 0  9997,2 45573  53.0405 260.8151 0001617  79.6864 274.2370 15.70459095  5961
STARLINK-1331,45578,53.0452,0.0001404,15.7019961,357.38023867713036,359.271837498226,1 45578U 20025AZ  26175.25002315 -.00020276  00000+0 -15956-3 0  9994,2 45578  53.0452 268.1595 0001404  82.5457  16.9083 15.70199610  5906
STARLINK-1333,45580,53.1554,0.0001343,15.36699601,454.95905820093867,456.7946743254179,1 45580U 20025BB  26175.06407704  .00041166  00000+0  11363-2 0  9993,2 45580  53.1554 301.9866 0001343 292.1846  67.9015 15.36699601341814
STARLINK-1335,45581,53.153,0.000172,15.38405201,449.65019196565027,451.9993548156963,1 45581U 20025BC  26175.07591385  .00065132  00000+0  16901-2 0  9996,2 45581  53.1530 298.4545 0001720 200.6845 159.4090 15.38405201341852
STARLINK-1337,45582,53.0422,0.0001965,15.76922718,337.8454740672669,340.4853739198961,1 45582U 20025BD  26175.24402622  .00070278  00000+0  42611-3 0  9996,2 45582  53.0422 256.3494 0001965  91.3679 268.7565 15.76922718342434
STARLINK-1347,45586,53.0361,0.0001037,15.70280355,357.3965594994834,358.7936540384271,1 45586U 20025BH  26174.85338096  .00048569  00000+0  39394-3 0  9991,2 45586  53.0361 229.5015 0001037  24.7193 335.3873 15.70280355342770
STARLINK-1364,45589,53.0414,0.0002911,15.71088238,353.8253994470915,357.7458892106206,1 45589U 20025BL  26174.98045305  .00053861  00000+0  42158-3 0  9999,2 45589  53.0414 265.4885 0002911 355.8324   4.2668 15.71088238342289
STARLINK-1365,45590,53.0438,0.0001026,15.66654717,367.79180335488127,369.17620998544953,1 45590U 20025BM  26175.25002315  .00045834  00000+0  43156-3 0  9996,2 45590  53.0438 299.3138 0001026  89.0084 247.9458 15.66654717  5991
STARLINK-1443,45660,53.1321,9.45e-05,15.33904102,463.53095191583,464.8241493659025,1 45660U 20035D   26175.02404179  .00039277  00000+0  11860-2 0  9994,2 45660  53.1321 291.1686 0000945  53.7609 306.3481 15.33904102335036
STARLINK-1446,45663,53.0204,0.0001723,15.48552117,419.7893508666739,422.13231998076026,1 45663U 20035G   26174.41124972  .00024503  00000+0  45914-3 0  9993,2 45663  53.0204 215.1748 0001723 312.4520  47.6341 15.48552117336026
STARLINK-1448,45665,53.0423,0.0001917,15.74369937,345.1355982991945,347.7137952537387,1 45665U 20035J   26175.25002315 -.00034983  00000+0 -23364-3 0  9994,2 45665  53.0423 251.5168 0001917  76.2683 212.7814 15.74369937  5928
STARLINK-1451,45668,53.0525,2.99e-05,15.14971034,520.8602135507481,521.2727859200322,1 45668U 20035M   26175.06134651  .00018763  00000+0  10075-2 0  9995,2 45668  53.0525 303.9280 0000299 176.2156 183.8839 15.14971034334841
STARLINK-1452,45669,53.0235,0.0007225,15.61686629,377.900044250664,387.66957626648764,1 45669U 20035N   26174.54338290  .00071067  00000+0  80708-3 0  9990,2 45669  53.0235 231.2323 0007225   1.8122 358.2916 15.61686629335810
STARLINK-1453,45670,53.0378,0.0001622,15.74698818,344.3977943403561,346.5789384092077,1 45670U 20035P   26175.25002315 -.00066625  00000+0 -44415-3 0  9998,2 45670  53.0378 211.7460 0001622  75.3323  62.0252 15.74698818  5813
STARLINK-1454,45671,53.0418,0.0001344,15.72895366,349.72249311195446,351.53118483187063,1 45671U 20035Q   26175.25002315 -.00006204  00000+0 -40351-4 0  9992,2 45671  53.0418 252.9447 0001344  79.7052  83.2878 15.72895366  5914
STARLINK-1456,45673,53.0408,0.0001253,15.69751885,358.7626549376828,360.4511335575826,1 45673U 20035S   26175.25002315  .00011606  00000+0  10034-3 0  9998,2 45673  53.0408 247.7040 0001253  69.6903 187.2278 15.69751885  5954
STARLINK-1458,45675,53.0446,0.0003551,15.59941345,385.42408538816835,390.22927279305804,1 45675U 20035U   26174.54810850  .00077247  00000+0  93757-3 0  9998,2 45675  53.0446 266.7466 0003551   0.0601   0.0411 15.59941345335282
STARLINK-1460,45676,53.1567,0.0002552,15.36531797,454.6302497727311,458.1185844000129,1 45676U 20035V   26175.04161234  .00042653  00000+0  11831-2 0  9995,2 45676  53.1567 289.3020 0002552 285.7213  74.3509 15.36531797335021
STARLINK-1392,45677,53.1522,0.0003032,15.39973271,444.1191470208378,448.25741787211336,1 45677U 20035W   26175.02403432  .00044645  00000+0  11066-2 0  9996,2 45677  53.1522 287.6235 0003032 305.7854  54.2869 15.39973271335082
STARLINK-1394,45679,53.0387,0.0001212,15.68504491,362.3616175426614,363.9957124598577,1 45679U 20035Y   26174.89378541  .00043029  00000+0  37631-3 0  9996,2 45679  53.0387 239.7970 0001212  75.3809 284.7341 15.68504491335726
STARLINK-1402,45685,53.0386,0.0004221,15.60103918,384.50091771183725,390.2123474364562,1 45685U 20035AE  26174.33779573  .00038262  00000+0  46686-3 0  9995,2 45685  53.0386 234.2136 0004221 290.6748  69.3812 15.60103918335768
STARLINK-1404,45686,53.1544,0.000351,15.4624694,425.32779355965704,430.1055028206856,1 45686U 20035AF  26174.56311749  .00020810  00000+0  42373-3 0  9997,2 45686  53.1544 270.7288 0003510 290.2339  69.8291 15.46246940335281
STARLINK-1413,45689,53.1559,0.0003097,15.36459174,454.47306265509724,458.7064924211054,1 45689U 20035AJ  26174.56063417  .00032154  00000+0  89777-3 0  9999,2 45689  53.1559 276.2096 0003097 307.9780  52.0943 15.36459174335129
STARLINK-1417,45693,53.0513,0.0002805,15.17513379,511.4256253768863,515.2917544589291,1 45693U 20035AN  26174.60535245  .00016057  00000+0  80479-3 0  9996,2 45693  53.0513 292.3728 0002805 199.7753 160.3132 15.17513379334957
STARLINK-1420,45695,53.0436,0.0001718,15.72258514,351.28741787808303,353.6000454174773,1 45695U 20035AQ  26175.25002315 -.00053717  00000+0 -39633-3 0  9999,2 45695  53.0436 220.8547 0001718  90.5981 226.6153 15.72258514  5975
STARLINK-1422,45696,53.1559,0.0002998,15.375261,451.37945550153563,455.47566161084615,1 45696U 20035AR  26173.91345648  .00378492  00000+0  96458-2 0  9995,2 45696  53.1559 279.1960 0002998 141.8699 218.2517 15.37526100335108
